ONEWEB-0228             
1 48780U 21045P   24002.74118866  .00000196  00000+0  48669-3 0  9999
2 48780  87.8991  77.6361 0001691 105.9834 254.1482 13.15543281126466
